{"fetched_at":"2026-07-22T07:09:47.414Z","source":"https://celestrak.org/NORAD/elements/gp.php?NAME=HULIANWANG&FORMAT=JSON","constellation":"guowang","records":[{"OBJECT_NAME":"HULIANWANG DIGUI-124","OBJECT_ID":"2025-295F","EPOCH":"2026-07-21T13:07:42.045888","CLASSIFICATION_TYPE":"U","MEAN_MOTION":13.29329493,"ECCENTRICITY":0.00011344,"INCLINATION":49.9989,"RA_OF_ASC_NODE":262.1083,"ARG_OF_PERICENTER":216.147,"MEAN_ANOMALY":143.9325,"EPHEMERIS_TYPE":0,"NORAD_CAT_ID":67064,"ELEMENT_SET_NO":999,"REV_AT_EPOCH":3007,"BSTAR":0.000052806283,"MEAN_MOTION_DOT":-0.000001,"MEAN_MOTION_DDOT":0},{"OBJECT_NAME":"HULIANWANG DIGUI-125","OBJECT_ID":"2025-295G","EPOCH":"2026-07-21T14:43:49.829952","CLASSIFICATION_TYPE":"U","MEAN_MOTION":13.29330152,"ECCENTRICITY":0.00011059,"INCLINATION":49.998,"RA_OF_ASC_NODE":261.778,"ARG_OF_PERICENTER":214.9434,"MEAN_ANOMALY":145.1366,"EPHEMERIS_TYPE":0,"NORAD_CAT_ID":67065,"ELEMENT_SET_NO":999,"REV_AT_EPOCH":3008,"BSTAR":0.000062655975,"MEAN_MOTION_DOT":-9.5e-7,"MEAN_MOTION_DDOT":0},{"OBJECT_NAME":"HULIANWANG DIGUI-126","OBJECT_ID":"2025-295H","EPOCH":"2026-07-21T14:31:47.731584","CLASSIFICATION_TYPE":"U","MEAN_MOTION":13.29323065,"ECCENTRICITY":0.00011451,"INCLINATION":49.9983,"RA_OF_ASC_NODE":261.7391,"ARG_OF_PERICENTER":211.1075,"MEAN_ANOMALY":148.973,"EPHEMERIS_TYPE":0,"NORAD_CAT_ID":67066,"ELEMENT_SET_NO":999,"REV_AT_EPOCH":3008,"BSTAR":0.000063845389,"MEAN_MOTION_DOT":-9.4e-7,"MEAN_MOTION_DDOT":0},{"OBJECT_NAME":"HULIANWANG DIGUI-127","OBJECT_ID":"2025-295J","EPOCH":"2026-07-21T12:31:23.416320","CLASSIFICATION_TYPE":"U","MEAN_MOTION":13.29331279,"ECCENTRICITY":0.00011345,"INCLINATION":50.0001,"RA_OF_ASC_NODE":262.0003,"ARG_OF_PERICENTER":214.5388,"MEAN_ANOMALY":145.541,"EPHEMERIS_TYPE":0,"NORAD_CAT_ID":67067,"ELEMENT_SET_NO":999,"REV_AT_EPOCH":3007,"BSTAR":0.000064332035,"MEAN_MOTION_DOT":-9.4e-7,"MEAN_MOTION_DDOT":0},{"OBJECT_NAME":"HULIANWANG DIGUI-128","OBJECT_ID":"2025-311A","EPOCH":"2026-07-21T11:15:00.039744","CLASSIFICATION_TYPE":"U","MEAN_MOTION":13.29323914,"ECCENTRICITY":0.00009107,"INCLINATION":50.0101,"RA_OF_ASC_NODE":352.6086,"ARG_OF_PERICENTER":95.751,"MEAN_ANOMALY":264.3466,"EPHEMERIS_TYPE":0,"NORAD_CAT_ID":67236,"ELEMENT_SET_NO":999,"REV_AT_EPOCH":2790,"BSTAR":0.000050554017,"MEAN_MOTION_DOT":-0.00000101,"MEAN_MOTION_DDOT":0},{"OBJECT_NAME":"HULIANWANG DIGUI-129","OBJECT_ID":"2025-311B","EPOCH":"2026-07-21T02:25:37.500672","CLASSIFICATION_TYPE":"U","MEAN_MOTION":13.29325087,"ECCENTRICITY":0.00008475,"INCLINATION":50.0091,"RA_OF_ASC_NODE":353.981,"ARG_OF_PERICENTER":96.5385,"MEAN_ANOMALY":263.5583,"EPHEMERIS_TYPE":0,"NORAD_CAT_ID":67237,"ELEMENT_SET_NO":999,"REV_AT_EPOCH":2785,"BSTAR":0.00004443386,"MEAN_MOTION_DOT":-0.00000103,"MEAN_MOTION_DDOT":0},{"OBJECT_NAME":"HULIANWANG DIGUI-130","OBJECT_ID":"2025-311C","EPOCH":"2026-07-21T10:50:55.544928","CLASSIFICATION_TYPE":"U","MEAN_MOTION":13.29323861,"ECCENTRICITY":0.00009359,"INCLINATION":50.0075,"RA_OF_ASC_NODE":353.1239,"ARG_OF_PERICENTER":95.674,"MEAN_ANOMALY":264.4239,"EPHEMERIS_TYPE":0,"NORAD_CAT_ID":67238,"ELEMENT_SET_NO":999,"REV_AT_EPOCH":2789,"BSTAR":0.000049470675,"MEAN_MOTION_DOT":-0.00000101,"MEAN_MOTION_DDOT":0},{"OBJECT_NAME":"HULIANWANG DIGUI-131","OBJECT_ID":"2025-311D","EPOCH":"2026-07-21T11:02:58.438176","CLASSIFICATION_TYPE":"U","MEAN_MOTION":13.29323523,"ECCENTRICITY":0.00009535,"INCLINATION":50.0069,"RA_OF_ASC_NODE":353.1592,"ARG_OF_PERICENTER":95.8104,"MEAN_ANOMALY":264.2877,"EPHEMERIS_TYPE":0,"NORAD_CAT_ID":67239,"ELEMENT_SET_NO":999,"REV_AT_EPOCH":2789,"BSTAR":0.000016115234,"MEAN_MOTION_DOT":-0.00000117,"MEAN_MOTION_DDOT":0},{"OBJECT_NAME":"HULIANWANG DIGUI-132","OBJECT_ID":"2025-311E","EPOCH":"2026-07-21T15:51:36.623520","CLASSIFICATION_TYPE":"U","MEAN_MOTION":13.29324321,"ECCENTRICITY":0.00008809,"INCLINATION":50.0081,"RA_OF_ASC_NODE":352.2418,"ARG_OF_PERICENTER":96.2651,"MEAN_ANOMALY":263.8322,"EPHEMERIS_TYPE":0,"NORAD_CAT_ID":67240,"ELEMENT_SET_NO":999,"REV_AT_EPOCH":2792,"BSTAR":0.000016303934,"MEAN_MOTION_DOT":-0.00000116,"MEAN_MOTION_DDOT":0},{"OBJECT_NAME":"HULIANWANG DIGUI-133","OBJECT_ID":"2025-311F","EPOCH":"2026-07-21T10:02:49.030656","CLASSIFICATION_TYPE":"U","MEAN_MOTION":13.29324286,"ECCENTRICITY":0.00008746,"INCLINATION":50.0123,"RA_OF_ASC_NODE":353.0406,"ARG_OF_PERICENTER":96.4877,"MEAN_ANOMALY":263.6095,"EPHEMERIS_TYPE":0,"NORAD_CAT_ID":67241,"ELEMENT_SET_NO":999,"REV_AT_EPOCH":2789,"BSTAR":0.000041295554,"MEAN_MOTION_DOT":-0.00000105,"MEAN_MOTION_DDOT":0},{"OBJECT_NAME":"HULIANWANG DIGUI-134","OBJECT_ID":"2025-311G","EPOCH":"2026-07-21T10:14:47.952960","CLASSIFICATION_TYPE":"U","MEAN_MOTION":13.29324077,"ECCENTRICITY":0.00008957,"INCLINATION":50.0052,"RA_OF_ASC_NODE":352.9647,"ARG_OF_PERICENTER":95.7397,"MEAN_ANOMALY":264.3578,"EPHEMERIS_TYPE":0,"NORAD_CAT_ID":67242,"ELEMENT_SET_NO":999,"REV_AT_EPOCH":2789,"BSTAR":0.000040795324,"MEAN_MOTION_DOT":-0.00000105,"MEAN_MOTION_DDOT":0},{"OBJECT_NAME":"HULIANWANG DIGUI-135","OBJECT_ID":"2025-311H","EPOCH":"2026-07-21T10:38:51.850752","CLASSIFICATION_TYPE":"U","MEAN_MOTION":13.29323726,"ECCENTRICITY":0.00008911,"INCLINATION":50.0047,"RA_OF_ASC_NODE":353.0271,"ARG_OF_PERICENTER":95.7476,"MEAN_ANOMALY":264.3497,"EPHEMERIS_TYPE":0,"NORAD_CAT_ID":67243,"ELEMENT_SET_NO":999,"REV_AT_EPOCH":2789,"BSTAR":0.000003056119,"MEAN_MOTION_DOT":-0.00000123,"MEAN_MOTION_DDOT":0},{"OBJECT_NAME":"HULIANWANG DIGUI-136","OBJECT_ID":"2025-311J","EPOCH":"2026-07-21T09:50:43.389024","CLASSIFICATION_TYPE":"U","MEAN_MOTION":13.29324655,"ECCENTRICITY":0.00008296,"INCLINATION":50.0113,"RA_OF_ASC_NODE":352.9771,"ARG_OF_PERICENTER":98.6809,"MEAN_ANOMALY":261.4157,"EPHEMERIS_TYPE":0,"NORAD_CAT_ID":67244,"ELEMENT_SET_NO":999,"REV_AT_EPOCH":2789,"BSTAR":0.000030779806,"MEAN_MOTION_DOT":-0.0000011,"MEAN_MOTION_DDOT":0},{"OBJECT_NAME":"HULIANWANG DIGUI-137","OBJECT_ID":"2026-007A","EPOCH":"2026-07-21T08:42:01.834272","CLASSIFICATION_TYPE":"U","MEAN_MOTION":13.2932721,"ECCENTRICITY":0.00008819,"INCLINATION":50.0099,"RA_OF_ASC_NODE":323.2902,"ARG_OF_PERICENTER":137.5786,"MEAN_ANOMALY":222.5154,"EPHEMERIS_TYPE":0,"NORAD_CAT_ID":67435,"ELEMENT_SET_NO":999,"REV_AT_EPOCH":2533,"BSTAR":0.000039747743,"MEAN_MOTION_DOT":-0.00000106,"MEAN_MOTION_DDOT":0},{"OBJECT_NAME":"HULIANWANG DIGUI-138","OBJECT_ID":"2026-007B","EPOCH":"2026-07-21T14:30:55.174464","CLASSIFICATION_TYPE":"U","MEAN_MOTION":13.29325594,"ECCENTRICITY":0.00008674,"INCLINATION":50.0077,"RA_OF_ASC_NODE":322.5363,"ARG_OF_PERICENTER":136.1291,"MEAN_ANOMALY":223.965,"EPHEMERIS_TYPE":0,"NORAD_CAT_ID":67436,"ELEMENT_SET_NO":999,"REV_AT_EPOCH":2536,"BSTAR":0.00005952798,"MEAN_MOTION_DOT":-9.6e-7,"MEAN_MOTION_DDOT":0},{"OBJECT_NAME":"HULIANWANG DIGUI-139","OBJECT_ID":"2026-007C","EPOCH":"2026-07-21T08:53:50.940672","CLASSIFICATION_TYPE":"U","MEAN_MOTION":13.29328531,"ECCENTRICITY":0.00008522,"INCLINATION":50.0046,"RA_OF_ASC_NODE":323.2552,"ARG_OF_PERICENTER":122.6783,"MEAN_ANOMALY":237.4172,"EPHEMERIS_TYPE":0,"NORAD_CAT_ID":67437,"ELEMENT_SET_NO":999,"REV_AT_EPOCH":2533,"BSTAR":0.000051504866,"MEAN_MOTION_DOT":-0.000001,"MEAN_MOTION_DDOT":0}]}
