{"epoch":1784710044,"count":18256,"objects":[{"id":"67064","name":"HULIANWANG DIGUI-124","type":"PAYLOAD","l1":"1 67064U 25295F   26202.54701442 -.00000100  00000-0  52806-4 0  9992","l2":"2 67064  49.9989 262.1083 0001134 216.1470 143.9325 13.29329493 30077"},{"id":"67065","name":"HULIANWANG DIGUI-125","type":"PAYLOAD","l1":"1 67065U 25295G   26202.61377118 -.00000095  00000-0  62656-4 0  9997","l2":"2 67065  49.9980 261.7780 0001106 214.9434 145.1366 13.29330152 30087"},{"id":"67066","name":"HULIANWANG DIGUI-126","type":"PAYLOAD","l1":"1 67066U 25295H   26202.60541356 -.00000094  00000-0  63845-4 0  9994","l2":"2 67066  49.9983 261.7391 0001145 211.1075 148.9730 13.29323065 30083"},{"id":"67067","name":"HULIANWANG DIGUI-127","type":"PAYLOAD","l1":"1 67067U 25295J   26202.52179880 -.00000094  00000-0  64332-4 0  9997","l2":"2 67067  50.0001 262.0003 0001135 214.5388 145.5410 13.29331279 30078"},{"id":"67236","name":"HULIANWANG DIGUI-128","type":"PAYLOAD","l1":"1 67236U 25311A   26202.46875046 -.00000101  00000-0  50554-4 0  9994","l2":"2 67236  50.0101 352.6086 0000911  95.7510 264.3466 13.29323914 27907"},{"id":"67237","name":"HULIANWANG DIGUI-129","type":"PAYLOAD","l1":"1 67237U 25311B   26202.10112848 -.00000103  00000-0  44434-4 0  9992","l2":"2 67237  50.0091 353.9810 0000848  96.5385 263.5583 13.29325087 27851"},{"id":"67238","name":"HULIANWANG DIGUI-130","type":"PAYLOAD","l1":"1 67238U 25311C   26202.45203177 -.00000101  00000-0  49471-4 0  9991","l2":"2 67238  50.0075 353.1239 0000936  95.6740 264.4239 13.29323861 27894"},{"id":"67239","name":"HULIANWANG DIGUI-131","type":"PAYLOAD","l1":"1 67239U 25311D   26202.46039859 -.00000117  00000-0  16115-4 0  9993","l2":"2 67239  50.0069 353.1592 0000954  95.8104 264.2877 13.29323523 27897"},{"id":"67240","name":"HULIANWANG DIGUI-132","type":"PAYLOAD","l1":"1 67240U 25311E   26202.66084055 -.00000116  00000-0  16304-4 0  9994","l2":"2 67240  50.0081 352.2418 0000881  96.2651 263.8322 13.29324321 27922"},{"id":"67241","name":"HULIANWANG DIGUI-133","type":"PAYLOAD","l1":"1 67241U 25311F   26202.41862304 -.00000105  00000-0  41296-4 0  9995","l2":"2 67241  50.0123 353.0406 0000875  96.4877 263.6095 13.29324286 27892"},{"id":"67242","name":"HULIANWANG DIGUI-134","type":"PAYLOAD","l1":"1 67242U 25311G   26202.42694390 -.00000105  00000-0  40795-4 0  9998","l2":"2 67242  50.0052 352.9647 0000896  95.7397 264.3578 13.29324077 27893"},{"id":"67243","name":"HULIANWANG DIGUI-135","type":"PAYLOAD","l1":"1 67243U 25311H   26202.44365568 -.00000123  00000-0  30561-5 0  9994","l2":"2 67243  50.0047 353.0271 0000891  95.7476 264.3497 13.29323726 27896"},{"id":"67244","name":"HULIANWANG DIGUI-136","type":"PAYLOAD","l1":"1 67244U 25311J   26202.41022441 -.00000110  00000-0  30780-4 0  9990","l2":"2 67244  50.0113 352.9771 0000830  98.6809 261.4157 13.29324655 27892"},{"id":"67435","name":"HULIANWANG DIGUI-137","type":"PAYLOAD","l1":"1 67435U 26007A   26202.36252123 -.00000106  00000-0  39748-4 0  9999","l2":"2 67435  50.0099 323.2902 0000882 137.5786 222.5154 13.29327210 25330"},{"id":"67436","name":"HULIANWANG DIGUI-138","type":"PAYLOAD","l1":"1 67436U 26007B   26202.60480526 -.00000096  00000-0  59528-4 0  9993","l2":"2 67436  50.0077 322.5363 0000867 136.1291 223.9650 13.29325594 25361"},{"id":"67437","name":"HULIANWANG DIGUI-139","type":"PAYLOAD","l1":"1 67437U 26007C   26202.37072848 -.00000100  00000-0  51505-4 0  9995","l2":"2 67437  50.0046 323.2552 0000852 122.6783 237.4172 13.29328531 25336"}]}